{
    "links": {
        "self": "http://www.neowsapp.com/rest/v1/neo/3483884?api_key=iIulBulltgU6a56xZRHN4H3l9WmuAYTsLGpBGhQ2"
    },
    "id": "3483884",
    "neo_reference_id": "3483884",
    "name": "(2009 YP)",
    "designation": "2009 YP",
    "nasa_jpl_url": "http://ssd.jpl.nasa.gov/sbdb.cgi?sstr=3483884",
    "absolute_magnitude_h": 24.0,
    "estimated_diameter": {
        "kilometers": {
            "estimated_diameter_min": 0.0421264611,
            "estimated_diameter_max": 0.0941976306
        },
        "meters": {
            "estimated_diameter_min": 42.1264610556,
            "estimated_diameter_max": 94.1976305719
        },
        "miles": {
            "estimated_diameter_min": 0.0261761612,
            "estimated_diameter_max": 0.0585316759
        },
        "feet": {
            "estimated_diameter_min": 138.2101784897,
            "estimated_diameter_max": 309.0473542854
        }
    },
    "is_potentially_hazardous_asteroid": false,
    "close_approach_data": [
        {
            "close_approach_date": "1900-05-11",
            "close_approach_date_full": "1900-May-11 12:38",
            "epoch_date_close_approach": -2197711320000,
            "relative_velocity": {
                "kilometers_per_second": "13.7433515035",
                "kilometers_per_hour": "49476.0654126184",
                "miles_per_hour": "30742.5029781906"
            },
            "miss_distance": {
                "astronomical": "0.0899485513",
                "lunar": "34.9899864557",
                "kilometers": "13456111.684065731",
                "miles": "8361240.0846238478"
            },
            "orbiting_body": "Venus"
        },
        {
            "close_approach_date": "2008-11-26",
            "close_approach_date_full": "2008-Nov-26 21:00",
            "epoch_date_close_approach": 1227733200000,
            "relative_velocity": {
                "kilometers_per_second": "19.3264302857",
                "kilometers_per_hour": "69575.1490283598",
                "miles_per_hour": "43231.2919059828"
            },
            "miss_distance": {
                "astronomical": "0.0872553318",
                "lunar": "33.9423240702",
                "kilometers": "13053211.783423266",
                "miles": "8110889.6952664308"
            },
            "orbiting_body": "Merc"
        },
        {
            "close_approach_date": "2009-09-05",
            "close_approach_date_full": "2009-Sep-05 16:08",
            "epoch_date_close_approach": 1252166880000,
            "relative_velocity": {
                "kilometers_per_second": "17.4946200728",
                "kilometers_per_hour": "62980.6322622161",
                "miles_per_hour": "39133.7156409309"
            },
            "miss_distance": {
                "astronomical": "0.0592732266",
                "lunar": "23.0572851474",
                "kilometers": "8867148.447387342",
                "miles": "5509790.5528236396"
            },
            "orbiting_body": "Merc"
        },
        {
            "close_approach_date": "2009-12-21",
            "close_approach_date_full": "2009-Dec-21 07:07",
            "epoch_date_close_approach": 1261379220000,
            "relative_velocity": {
                "kilometers_per_second": "10.1552261376",
                "kilometers_per_hour": "36558.8140954288",
                "miles_per_hour": "22716.2253472402"
            },
            "miss_distance": {
                "astronomical": "0.1629360626",
                "lunar": "63.3821283514",
                "kilometers": "24374887.911146662",
                "miles": "15145853.0254494556"
            },
            "orbiting_body": "Earth"
        }
    ],
    "orbital_data": {
        "orbit_id": "7",
        "orbit_determination_date": "2017-04-06 09:00:31",
        "first_observation_date": "2009-12-18",
        "last_observation_date": "2009-12-19",
        "data_arc_in_days": 1,
        "observations_used": 19,
        "orbit_uncertainty": "9",
        "minimum_orbit_intersection": ".050274",
        "jupiter_tisserand_invariant": "7.052",
        "epoch_osculation": "2455184.5",
        "eccentricity": ".4241957438565322",
        "semi_major_axis": ".8201944569554245",
        "inclination": "9.988574786320388",
        "ascending_node_longitude": "86.00952605066638",
        "orbital_period": "271.3149167721951",
        "perihelion_distance": ".4722714591802137",
        "perihelion_argument": "203.1329173050676",
        "aphelion_distance": "1.168117454730635",
        "perihelion_time": "2455078.312338320442",
        "mean_anomaly": "140.8973699619251",
        "mean_motion": "1.326871387253167",
        "equinox": "J2000",
        "orbit_class": {
            "orbit_class_type": "ATE",
            "orbit_class_description": "Near-Earth asteroid orbits similar to that of 2062 Aten",
            "orbit_class_range": "a (semi-major axis) < 1.0 AU; q (perihelion) > 0.983 AU"
        }
    },
    "is_sentry_object": false
}